{
  "norad_id": 67597,
  "name": "STARLINK-36384",
  "history": [
    {
      "epoch": "2026-03-28T18:25:25.332384Z",
      "apogee_km": 466.4962368680817,
      "perigee_km": 464.6656791886671,
      "latitude_deg": -1.807314602654364e-05,
      "longitude_deg": 51.258480208460746,
      "height_km": 468.4238721395215,
      "semi_major_axis_km": 6843.717958028374,
      "eccentricity": 0.00013374,
      "inclination_deg": 97.2847,
      "raan_deg": 153.7974,
      "arg_perigee_deg": 73.0389,
      "mean_anomaly_deg": 287.1,
      "mean_motion_rev_day": 15.33432301
    },
    {
      "epoch": "2026-03-29T03:49:13.121760Z",
      "apogee_km": 466.20644730402273,
      "perigee_km": 464.7104373403299,
      "latitude_deg": -6.950828041498552e-05,
      "longitude_deg": -89.69114064754079,
      "height_km": 468.33680836841813,
      "semi_major_axis_km": 6843.595442322176,
      "eccentricity": 0.0001093,
      "inclination_deg": 97.2844,
      "raan_deg": 154.1828,
      "arg_perigee_deg": 71.9289,
      "mean_anomaly_deg": 288.2072,
      "mean_motion_rev_day": 15.33473479
    },
    {
      "epoch": "2026-03-30T01:44:44.515680Z",
      "apogee_km": 466.84944033783177,
      "perigee_km": 463.98746544743335,
      "latitude_deg": -2.942053331514971e-06,
      "longitude_deg": -58.56940025436167,
      "height_km": 467.967186668509,
      "semi_major_axis_km": 6843.555452892632,
      "eccentricity": 0.0002091,
      "inclination_deg": 97.2868,
      "raan_deg": 155.0858,
      "arg_perigee_deg": 66.9606,
      "mean_anomaly_deg": 293.1857,
      "mean_motion_rev_day": 15.3348692
    },
    {
      "epoch": "2026-03-30T01:44:44.516544Z",
      "apogee_km": 466.84909816005984,
      "perigee_km": 463.9878076252053,
      "latitude_deg": 2.318669387642749e-06,
      "longitude_deg": -58.56940453317725,
      "height_km": 467.96732061405896,
      "semi_major_axis_km": 6843.555452892632,
      "eccentricity": 0.00020905,
      "inclination_deg": 97.2868,
      "raan_deg": 155.0858,
      "arg_perigee_deg": 66.9606,
      "mean_anomaly_deg": 293.1857,
      "mean_motion_rev_day": 15.3348692
    },
    {
      "epoch": "2026-03-30T22:06:19.560672Z",
      "apogee_km": 466.49471255402386,
      "perigee_km": 464.55302909175407,
      "latitude_deg": 4.370327483219867e-05,
      "longitude_deg": -3.9677705977100834,
      "height_km": 468.45986780465256,
      "semi_major_axis_km": 6843.660870822889,
      "eccentricity": 0.00014186,
      "inclination_deg": 97.2848,
      "raan_deg": 155.9196,
      "arg_perigee_deg": 79.6894,
      "mean_anomaly_deg": 280.4509,
      "mean_motion_rev_day": 15.33451488
    },
    {
      "epoch": "2026-03-31T10:38:03.820128Z",
      "apogee_km": 466.200295165253,
      "perigee_km": 464.8360809400665,
      "latitude_deg": 8.418547898254625e-05,
      "longitude_deg": 168.09806442503776,
      "height_km": 468.55263425148655,
      "semi_major_axis_km": 6843.6551880526595,
      "eccentricity": 9.967e-05,
      "inclination_deg": 97.2856,
      "raan_deg": 156.4344,
      "arg_perigee_deg": 83.6046,
      "mean_anomaly_deg": 276.5311,
      "mean_motion_rev_day": 15.33453398
    },
    {
      "epoch": "2026-04-01T13:15:31.125312Z",
      "apogee_km": 465.8258913057716,
      "perigee_km": 465.1743770505973,
      "latitude_deg": -1.0333358490739384e-05,
      "longitude_deg": 128.73258715142907,
      "height_km": 468.6336081633577,
      "semi_major_axis_km": 6843.637134178184,
      "eccentricity": 4.76e-05,
      "inclination_deg": 97.2854,
      "raan_deg": 157.5261,
      "arg_perigee_deg": 93.9047,
      "mean_anomaly_deg": 266.225,
      "mean_motion_rev_day": 15.33459466
    },
    {
      "epoch": "2026-04-02T03:21:13.576608Z",
      "apogee_km": 466.54453779029063,
      "perigee_km": 464.43067902124676,
      "latitude_deg": 4.971155203535753e-05,
      "longitude_deg": -82.6961664587949,
      "height_km": 468.7639417699176,
      "semi_major_axis_km": 6843.624608405768,
      "eccentricity": 0.00015444,
      "inclination_deg": 97.2812,
      "raan_deg": 158.1031,
      "arg_perigee_deg": 99.0689,
      "mean_anomaly_deg": 261.0729,
      "mean_motion_rev_day": 15.33463676
    },
    {
      "epoch": "2026-04-02T22:08:49.797312Z",
      "apogee_km": 466.2030098877167,
      "perigee_km": 464.6192759764799,
      "latitude_deg": 7.735853036812612e-06,
      "longitude_deg": -4.594497471705612,
      "height_km": 468.21570902711665,
      "semi_major_axis_km": 6843.548142932098,
      "eccentricity": 0.00011571,
      "inclination_deg": 97.286,
      "raan_deg": 158.8775,
      "arg_perigee_deg": 67.2886,
      "mean_anomaly_deg": 292.8479,
      "mean_motion_rev_day": 15.33489377
    },
    {
      "epoch": "2026-04-03T16:56:27.384000Z",
      "apogee_km": 466.72709263520665,
      "perigee_km": 464.75058129349145,
      "latitude_deg": -1.0462244793663315e-05,
      "longitude_deg": 73.49936076685155,
      "height_km": 468.8407202532116,
      "semi_major_axis_km": 6843.875836964349,
      "eccentricity": 0.0001444,
      "inclination_deg": 97.283,
      "raan_deg": 159.6498,
      "arg_perigee_deg": 89.548,
      "mean_anomaly_deg": 270.5928,
      "mean_motion_rev_day": 15.3337924
    },
    {
      "epoch": "2026-04-04T16:25:59.087424Z",
      "apogee_km": 466.5277629483853,
      "perigee_km": 464.4760400057212,
      "latitude_deg": -3.285692429331078e-05,
      "longitude_deg": 81.11677743967418,
      "height_km": 468.57392317733655,
      "semi_major_axis_km": 6843.638901477053,
      "eccentricity": 0.0001499,
      "inclination_deg": 97.2838,
      "raan_deg": 160.6141,
      "arg_perigee_deg": 87.8968,
      "mean_anomaly_deg": 272.2446,
      "mean_motion_rev_day": 15.33458872
    },
    {
      "epoch": "2026-04-05T03:23:45.262176Z",
      "apogee_km": 466.3727992239037,
      "perigee_km": 464.63383021993377,
      "latitude_deg": 3.708241210318571e-05,
      "longitude_deg": -83.32445408251031,
      "height_km": 468.3551347630982,
      "semi_major_axis_km": 6843.640314721919,
      "eccentricity": 0.00012705,
      "inclination_deg": 97.2844,
      "raan_deg": 161.0655,
      "arg_perigee_deg": 72.7217,
      "mean_anomaly_deg": 287.4165,
      "mean_motion_rev_day": 15.33458397
    },
    {
      "epoch": "2026-04-05T17:29:27.123360Z",
      "apogee_km": 466.2960535395823,
      "perigee_km": 464.60568733558466,
      "latitude_deg": 3.0846730088472957e-05,
      "longitude_deg": 65.24986456114311,
      "height_km": 468.09577264277914,
      "semi_major_axis_km": 6843.587870437584,
      "eccentricity": 0.0001235,
      "inclination_deg": 97.2838,
      "raan_deg": 161.6431,
      "arg_perigee_deg": 56.5835,
      "mean_anomaly_deg": 303.5526,
      "mean_motion_rev_day": 15.33476024
    },
    {
      "epoch": "2026-04-06T04:27:13.498560Z",
      "apogee_km": 466.9477146269646,
      "perigee_km": 464.0898039818794,
      "latitude_deg": 2.7582051727821826e-05,
      "longitude_deg": -99.19789553346348,
      "height_km": 468.69342309781257,
      "semi_major_axis_km": 6843.655759304422,
      "eccentricity": 0.0002088,
      "inclination_deg": 97.2793,
      "raan_deg": 162.0888,
      "arg_perigee_deg": 92.6423,
      "mean_anomaly_deg": 267.5059,
      "mean_motion_rev_day": 15.33453206
    },
    {
      "epoch": "2026-04-07T21:10:23.126304Z",
      "apogee_km": 466.61107487198296,
      "perigee_km": 464.41836886029614,
      "latitude_deg": 1.9430700288598542e-05,
      "longitude_deg": 10.01610137847302,
      "height_km": 468.70293750788926,
      "semi_major_axis_km": 6843.651721866139,
      "eccentricity": 0.0001602,
      "inclination_deg": 97.2835,
      "raan_deg": 163.7652,
      "arg_perigee_deg": 94.1161,
      "mean_anomaly_deg": 266.0265,
      "mean_motion_rev_day": 15.33454563
    },
    {
      "epoch": "2026-04-08T14:24:01.647648Z",
      "apogee_km": 466.2599595431757,
      "perigee_km": 464.74984152140405,
      "latitude_deg": -1.9055459250907004e-05,
      "longitude_deg": 111.60689564846038,
      "height_km": 467.9535642770412,
      "semi_major_axis_km": 6843.64190053229,
      "eccentricity": 0.00011033,
      "inclination_deg": 97.2859,
      "raan_deg": 164.474,
      "arg_perigee_deg": 28.6878,
      "mean_anomaly_deg": 331.4425,
      "mean_motion_rev_day": 15.33457864
    },
    {
      "epoch": "2026-04-09T10:45:36.620064Z",
      "apogee_km": 465.91469391031023,
      "perigee_km": 465.18926287859995,
      "latitude_deg": 2.4223974169150836e-05,
      "longitude_deg": 166.2118254407836,
      "height_km": 468.7476058195743,
      "semi_major_axis_km": 6843.688978394454,
      "eccentricity": 5.3e-05,
      "inclination_deg": 97.2854,
      "raan_deg": 165.3108,
      "arg_perigee_deg": 103.4577,
      "mean_anomaly_deg": 256.6725,
      "mean_motion_rev_day": 15.33442041
    },
    {
      "epoch": "2026-04-10T10:15:07.443936Z",
      "apogee_km": 466.478192188466,
      "perigee_km": 464.5578625877806,
      "latitude_deg": 5.6471991989386225e-05,
      "longitude_deg": 173.83450804758388,
      "height_km": 468.6208704464514,
      "semi_major_axis_km": 6843.655027388123,
      "eccentricity": 0.0001403,
      "inclination_deg": 97.2879,
      "raan_deg": 166.2767,
      "arg_perigee_deg": 89.5908,
      "mean_anomaly_deg": 270.5496,
      "mean_motion_rev_day": 15.33453452
    },
    {
      "epoch": "2026-04-11T01:54:48.132000Z",
      "apogee_km": 466.7992156438113,
      "perigee_km": 464.2819741508556,
      "latitude_deg": 6.327906327932822e-05,
      "longitude_deg": -61.08491473600499,
      "height_km": 468.6252448427449,
      "semi_major_axis_km": 6843.677594897333,
      "eccentricity": 0.00018391,
      "inclination_deg": 97.2869,
      "raan_deg": 166.92,
      "arg_perigee_deg": 88.8928,
      "mean_anomaly_deg": 271.2526,
      "mean_motion_rev_day": 15.33445867
    },
    {
      "epoch": "2026-04-12T21:45:53.917056Z",
      "apogee_km": 466.2780337844588,
      "perigee_km": 464.79706261222964,
      "latitude_deg": 3.42996373272183e-05,
      "longitude_deg": 1.1377611509906067,
      "height_km": 468.6414047478218,
      "semi_major_axis_km": 6843.674548198344,
      "eccentricity": 0.0001082,
      "inclination_deg": 97.2843,
      "raan_deg": 168.7177,
      "arg_perigee_deg": 89.4993,
      "mean_anomaly_deg": 270.6374,
      "mean_motion_rev_day": 15.33446891
    },
    {
      "epoch": "2026-04-14T03:31:17.041728Z",
      "apogee_km": 466.4855042176878,
      "perigee_km": 464.5888483564713,
      "latitude_deg": -6.899778574815478e-05,
      "longitude_deg": -85.20713064424602,
      "height_km": 468.74198472520453,
      "semi_major_axis_km": 6843.674176287079,
      "eccentricity": 0.00013857,
      "inclination_deg": 97.2849,
      "raan_deg": 169.9412,
      "arg_perigee_deg": 95.7463,
      "mean_anomaly_deg": 264.3937,
      "mean_motion_rev_day": 15.33447016
    }
  ]
}